{
  "type": "FeatureCollection",
  "features": [
    {
      "type": "Feature",
      "properties": {
        "norad_id": 26766,
        "name": "INTELSAT 10 (IS-10)",
        "group": "intelsat",
        "lat": -4.736693087194499,
        "lon": 28.063034488976875,
        "alt_km": 36130.504331983786,
        "timestamp": "2025-12-27T14:26:30.183779+00:00",
        "meta_object_name": "INTELSAT 10 (IS-10)",
        "meta_object_id": "2001-019A",
        "meta_epoch": "2025-12-27T04:51:38.509056",
        "meta_mean_motion": 0.9907171,
        "meta_eccentricity": 0.00080983,
        "meta_inclination": 8.662,
        "meta_ra_of_asc_node": 61.0096,
        "meta_arg_of_pericenter": 230.2441,
        "meta_mean_anomaly": 314.0374,
        "meta_ephemeris_type": 0,
        "meta_classification_type": "U",
        "meta_norad_cat_id": 26766,
        "meta_element_set_no": 999,
        "meta_rev_at_epoch": 4387,
        "meta_bstar": 0,
        "meta_mean_motion_dot": 6.5e-07,
        "meta_mean_motion_ddot": 0,
        "tle_line1": "1 26766U 01019A   25361.20252904  .00000065  00000+0  00000+0 0  9998",
        "tle_line2": "2 26766   8.6620  61.0096 0008098 230.2441 314.0374  0.99071710 43872"
      },
      "geometry": {
        "type": "Point",
        "coordinates": [
          28.063034488976875,
          -4.736693087194499
        ]
      }
    },
    {
      "type": "Feature",
      "properties": {
        "norad_id": 26900,
        "name": "INTELSAT 902 (IS-902)",
        "group": "intelsat",
        "lat": -0.885751363071398,
        "lon": -97.33220845302215,
        "alt_km": 35768.71704331236,
        "timestamp": "2025-12-27T14:26:30.183803+00:00",
        "meta_object_name": "INTELSAT 902 (IS-902)",
        "meta_object_id": "2001-039A",
        "meta_epoch": "2025-12-15T13:09:02.081664",
        "meta_mean_motion": 1.0027087,
        "meta_eccentricity": 0.00045028,
        "meta_inclination": 5.6536,
        "meta_ra_of_asc_node": 74.0372,
        "meta_arg_of_pericenter": 189.6359,
        "meta_mean_anomaly": 327.9329,
        "meta_ephemeris_type": 0,
        "meta_classification_type": "U",
        "meta_norad_cat_id": 26900,
        "meta_element_set_no": 999,
        "meta_rev_at_epoch": 8885,
        "meta_bstar": 0,
        "meta_mean_motion_dot": -2.65e-06,
        "meta_mean_motion_ddot": 0,
        "tle_line1": "1 26900U 01039A   25349.54794076 -.00000265  00000+0  00000+0 0  9997",
        "tle_line2": "2 26900   5.6536  74.0372 0004502 189.6359 327.9329  1.00270870 88858"
      },
      "geometry": {
        "type": "Point",
        "coordinates": [
          -97.33220845302215,
          -0.885751363071398
        ]
      }
    },
    {
      "type": "Feature",
      "properties": {
        "norad_id": 27380,
        "name": "INTELSAT 904 (IS-904)",
        "group": "intelsat",
        "lat": -3.276549796927389,
        "lon": -78.69764899731575,
        "alt_km": 35779.317951865516,
        "timestamp": "2025-12-27T14:26:30.183820+00:00",
        "meta_object_name": "INTELSAT 904 (IS-904)",
        "meta_object_id": "2002-007A",
        "meta_epoch": "2025-12-27T02:23:21.689376",
        "meta_mean_motion": 1.00272196,
        "meta_eccentricity": 0.00021295,
        "meta_inclination": 6.4885,
        "meta_ra_of_asc_node": 71.2651,
        "meta_arg_of_pericenter": 247.8595,
        "meta_mean_anomaly": 141.0735,
        "meta_ephemeris_type": 0,
        "meta_classification_type": "U",
        "meta_norad_cat_id": 27380,
        "meta_element_set_no": 999,
        "meta_rev_at_epoch": 5004,
        "meta_bstar": 0,
        "meta_mean_motion_dot": -2.06e-06,
        "meta_mean_motion_ddot": 0,
        "tle_line1": "1 27380U 02007A   25361.09955659 -.00000206  00000+0  00000+0 0  9991",
        "tle_line2": "2 27380   6.4885  71.2651 0002129 247.8595 141.0735  1.00272196 50047"
      },
      "geometry": {
        "type": "Point",
        "coordinates": [
          -78.69764899731575,
          -3.276549796927389
        ]
      }
    },
    {
      "type": "Feature",
      "properties": {
        "norad_id": 27426,
        "name": "DIRECTV 5 (TEMPO 1)",
        "group": "intelsat",
        "lat": 3.618307605564706,
        "lon": -157.1252499114695,
        "alt_km": 35783.625381481535,
        "timestamp": "2025-12-27T14:26:30.183833+00:00",
        "meta_object_name": "DIRECTV 5 (TEMPO 1)",
        "meta_object_id": "2002-023A",
        "meta_epoch": "2025-12-27T05:37:47.675712",
        "meta_mean_motion": 1.00271394,
        "meta_eccentricity": 0.00034812,
        "meta_inclination": 4.4371,
        "meta_ra_of_asc_node": 77.4808,
        "meta_arg_of_pericenter": 207.2285,
        "meta_mean_anomaly": 145.5877,
        "meta_ephemeris_type": 0,
        "meta_classification_type": "U",
        "meta_norad_cat_id": 27426,
        "meta_element_set_no": 999,
        "meta_rev_at_epoch": 8639,
        "meta_bstar": 0,
        "meta_mean_motion_dot": -3.6e-07,
        "meta_mean_motion_ddot": 0,
        "tle_line1": "1 27426U 02023A   25361.23457958 -.00000036  00000+0  00000+0 0  9996",
        "tle_line2": "2 27426   4.4371  77.4808 0003481 207.2285 145.5877  1.00271394 86398"
      },
      "geometry": {
        "type": "Point",
        "coordinates": [
          -157.1252499114695,
          3.618307605564706
        ]
      }
    },
    {
      "type": "Feature",
      "properties": {
        "norad_id": 27438,
        "name": "INTELSAT 905 (IS-905)",
        "group": "intelsat",
        "lat": 6.143452972655072,
        "lon": 175.8439496965757,
        "alt_km": 35786.98935792317,
        "timestamp": "2025-12-27T14:26:30.183845+00:00",
        "meta_object_name": "INTELSAT 905 (IS-905)",
        "meta_object_id": "2002-027A",
        "meta_epoch": "2025-12-23T05:41:27.377952",
        "meta_mean_motion": 1.00273243,
        "meta_eccentricity": 0.00027491,
        "meta_inclination": 6.3102,
        "meta_ra_of_asc_node": 71.9349,
        "meta_arg_of_pericenter": 206.5226,
        "meta_mean_anomaly": 121.7385,
        "meta_ephemeris_type": 0,
        "meta_classification_type": "U",
        "meta_norad_cat_id": 27438,
        "meta_element_set_no": 999,
        "meta_rev_at_epoch": 4959,
        "meta_bstar": 0,
        "meta_mean_motion_dot": 1.12e-06,
        "meta_mean_motion_ddot": 0,
        "tle_line1": "1 27438U 02027A   25357.23712243  .00000112  00000+0  00000+0 0  9993",
        "tle_line2": "2 27438   6.3102  71.9349 0002749 206.5226 121.7385  1.00273243 49592"
      },
      "geometry": {
        "type": "Point",
        "coordinates": [
          175.8439496965757,
          6.143452972655072
        ]
      }
    },
    {
      "type": "Feature",
      "properties": {
        "norad_id": 27445,
        "name": "GALAXY 3C (G-3C)",
        "group": "intelsat",
        "lat": 2.2095094065948993,
        "lon": -141.84897597037912,
        "alt_km": 35783.442061418296,
        "timestamp": "2025-12-27T14:26:30.183858+00:00",
        "meta_object_name": "GALAXY 3C (G-3C)",
        "meta_object_id": "2002-030A",
        "meta_epoch": "2025-12-26T06:43:38.713152",
        "meta_mean_motion": 1.00271267,
        "meta_eccentricity": 9.7e-05,
        "meta_inclination": 3.2955,
        "meta_ra_of_asc_node": 80.3601,
        "meta_arg_of_pericenter": 86.5436,
        "meta_mean_anomaly": 294.1805,
        "meta_ephemeris_type": 0,
        "meta_classification_type": "U",
        "meta_norad_cat_id": 27445,
        "meta_element_set_no": 999,
        "meta_rev_at_epoch": 4476,
        "meta_bstar": 0,
        "meta_mean_motion_dot": -1.32e-06,
        "meta_mean_motion_ddot": 0,
        "tle_line1": "1 27445U 02030A   25360.28030918 -.00000132  00000+0  00000+0 0  9999",
        "tle_line2": "2 27445   3.2955  80.3601 0000970  86.5436 294.1805  1.00271267 44760"
      },
      "geometry": {
        "type": "Point",
        "coordinates": [
          -141.84897597037912,
          2.2095094065948993
        ]
      }
    },
    {
      "type": "Feature",
      "properties": {
        "norad_id": 27513,
        "name": "INTELSAT 906 (IS-906)",
        "group": "intelsat",
        "lat": -4.54628341547695,
        "lon": 17.261697041203863,
        "alt_km": 35790.65883014006,
        "timestamp": "2025-12-27T14:26:30.183871+00:00",
        "meta_object_name": "INTELSAT 906 (IS-906)",
        "meta_object_id": "2002-041A",
        "meta_epoch": "2025-12-27T04:44:52.745280",
        "meta_mean_motion": 1.00271138,
        "meta_eccentricity": 0.00061408,
        "meta_inclination": 5.3666,
        "meta_ra_of_asc_node": 75.0601,
        "meta_arg_of_pericenter": 203.6338,
        "meta_mean_anomaly": 312.5849,
        "meta_ephemeris_type": 0,
        "meta_classification_type": "U",
        "meta_norad_cat_id": 27513,
        "meta_element_set_no": 999,
        "meta_rev_at_epoch": 8530,
        "meta_bstar": 0,
        "meta_mean_motion_dot": 3.3e-07,
        "meta_mean_motion_ddot": 0,
        "tle_line1": "1 27513U 02041A   25361.19783270  .00000033  00000+0  00000+0 0  9993",
        "tle_line2": "2 27513   5.3666  75.0601 0006140 203.6338 312.5849  1.00271138 85302"
      },
      "geometry": {
        "type": "Point",
        "coordinates": [
          17.261697041203863,
          -4.54628341547695
        ]
      }
    }
  ]
}